BEIDOU 3 (C01)          
1 36287U 10001A   21264.91074137 -.00000295  00000-0  00000-0 0  9992
2 36287   1.6480  40.1823 0003474  74.9001 354.2194  1.00269288 42824
BEIDOU 5 (C06)          
1 36828U 10036A   21264.86861178 -.00000147  00000-0  00000-0 0  9990
2 36828  54.1835 178.7036 0023199 181.9252  60.2881  1.00275697 40881
BEIDOU 6 (C04)          
1 37210U 10057A   21264.91457897 -.00000128  00000-0  00000-0 0  9993
2 37210   1.0059  56.1682 0006828 135.2468 298.7482  1.00269805 39947
BEIDOU 7 (C07)          
1 37256U 10068A   21264.31675824 -.00000185  00000-0  00000-0 0  9994
2 37256  50.6978 292.8608 0019832 185.4824 104.9808  1.00301079 39441
BEIDOU 8 (C08)          
1 37384U 11013A   21264.74998054 -.00000165  00000-0  00000-0 0  9995
2 37384  59.9126  56.9328 0018633 179.6801 140.3945  1.00280093 38320
BEIDOU 9 (C09)          
1 37763U 11038A   21264.93546302 -.00000097  00000-0  00000-0 0  9993
2 37763  54.4718 181.1636 0086620 226.9524  23.0332  1.00289939 37302
BEIDOU 10 (C10)         
1 37948U 11073A   21264.55205082 -.00000138  00000-0  00000-0 0  9998
2 37948  50.7995 292.4852 0078987 217.1806 145.9919  1.00271637 36064
BEIDOU 11 (C05)         
1 38091U 12008A   21264.96621208  .00000043  00000-0  00000-0 0  9998
2 38091   1.7588  70.0230 0003648 335.9914   1.6294  1.00268103 35134
BEIDOU 12 (C11)         
1 38250U 12018A   21264.59678573 -.00000115  00000-0  00000-0 0  9993
2 38250  56.7472   2.4409 0023065 244.4165  69.5709  1.86234212 64074
BEIDOU 13 (C12)         
1 38251U 12018B   21264.74709670 -.00000114  00000-0  00000-0 0  9993
2 38251  56.6696   1.7786 0013670 243.4779 215.6392  1.86234086 64085
BEIDOU 15 (C14)         
1 38775U 12050B   21264.72510483  .00000024  00000-0  00000-0 0  9999
2 38775  55.2521 120.7379 0013006 328.3101 313.3486  1.86231355 61457
BEIDOU 16 (C02)         
1 38953U 12059A   21264.50748845 -.00000192  00000-0  00000-0 0  9994
2 38953   1.3259  84.2704 0009427 292.4609 250.5242  1.00275396 32704
BEIDOU 17 (C31)         
1 40549U 15019A   21264.61402528 -.00000143  00000-0  00000-0 0  9990
2 40549  52.3390 315.8780 0038113 188.9426 168.1385  1.00299462 23732
BEIDOU 18 (C57)         
1 40748U 15037A   21264.73763375 -.00000115  00000-0  00000-0 0  9993
2 40748  55.9282   0.8090 0001462  42.8439 319.7141  1.86233326 41911
BEIDOU 19 (C58)         
1 40749U 15037B   21264.57994003 -.00000115  00000-0  00000-0 0  9990
2 40749  55.9309   0.8018 0002634 297.4884  95.0208  1.86232135 41900
BEIDOU 20 (C18)         
1 40938U 15053A   21264.55465730 -.00000113  00000-0  00000-0 0  9994
2 40938  51.9182 278.9588 0048327 196.0242 180.5430  1.00261845 22010
BEIDOU IGSO-6 (C13)     
1 41434U 16021A   21264.90106015 -.00000135  00000-0  00000-0 0  9993
2 41434  57.7117  55.6368 0043068 210.4237 152.3729  1.00293357 20145
BEIDOU-2 G7 (C03)       
1 41586U 16037A   21264.88580892 -.00000369  00000-0  00000-0 0  9993
2 41586   1.9041  68.9866 0008003  14.9225 346.5055  1.00274439 19444
BEIDOU-3 M1 (C19)       
1 43001U 17069A   21264.53492826  .00000025  00000-0  00000-0 0  9992
2 43001  55.4052 120.7084 0008267 295.3381  14.8302  1.86231899 26381
BEIDOU-3 M2 (C20)       
1 43002U 17069B   21264.81323149  .00000024  00000-0  00000-0 0  9994
2 43002  55.4048 120.7338 0007328 321.9677 218.1196  1.86231468 26382
BEIDOU-3 M3 (C27)       
1 43107U 18003A   21264.72001788 -.00000116  00000-0  00000-0 0  9994
2 43107  55.3725   1.8455 0004195  65.1448 218.3633  1.86232544 25147
BEIDOU-3 M4 (C28)       
1 43108U 18003B   21264.65347666 -.00000116  00000-0  00000-0 0  9995
2 43108  55.3667   1.8370 0003551 227.1620  56.9077  1.86232396 25149
BEIDOU-3 M5 (C21)       
1 43207U 18018A   21264.14010856  .00000027  00000-0  00000-0 0  9993
2 43207  55.3643 120.8446 0005572 352.3296   7.7620  1.86231787 24526
BEIDOU-3 M6 (C22)       
1 43208U 18018B   21263.66988600  .00000028  00000-0  00000-0 0  9992
2 43208  55.3636 120.8647 0006528 310.4252  49.6163  1.86231692 24512
BEIDOU-3 M7 (C29)       
1 43245U 18029A   21264.85594781 -.00000115  00000-0  00000-0 0  9998
2 43245  55.2990 359.6268 0000984 171.1359 113.7577  1.86232507 23681
BEIDOU-3 M8 (C30)       
1 43246U 18029B   21264.78799098 -.00000115  00000-0  10000-3 0  9993
2 43246  55.2960 359.6595 0002823 353.1395 292.4742  1.86232820 23674
BEIDOU IGSO-7 (C16)     
1 43539U 18057A   21264.86891272 -.00000152  00000-0  00000-0 0  9992
2 43539  55.0642 178.0949 0041271 224.2956  22.9279  1.00292450 11816
BEIDOU-3 M9 (C23)       
1 43581U 18062A   21264.93136144 -.00000013  00000-0  00000-0 0  9999
2 43581  54.3674 241.2857 0006332 272.8806 319.1548  1.86231836 21426
BEIDOU-3 M10 (C24)      
1 43582U 18062B   21264.73554394 -.00000014  00000-0  00000-0 0  9990
2 43582  54.3668 241.2825 0005411 329.4781 222.7109  1.86232261 21428
BEIDOU-3 M11 (C25)      
1 43602U 18067A   21264.73660662 -.00000014  00000-0  00000-0 0  9994
2 43602  54.4452 239.8731 0006882 351.3157 243.6148  1.86231565 20910
BEIDOU-3 M12 (C26)      
1 43603U 18067B   21264.70239189 -.00000015  00000-0  00000-0 0  9999
2 43603  54.4419 239.8420 0004445 333.3245 149.1066  1.86231500 20930
BEIDOU-3 M13 (C32)      
1 43622U 18072A   21264.74642240  .00000024  00000-0  00000-0 0  9995
2 43622  55.3296 120.3889 0005107 293.5514 248.4097  1.86231972 20445
BEIDOU-3 M14 (C33)      
1 43623U 18072B   21264.79496297  .00000023  00000-0  00000-0 0  9999
2 43623  55.3320 120.3784 0003657 332.0135 332.7224  1.86231977 20448
BEIDOU-3 M15 (C34)      
1 43647U 18078A   21264.92344727 -.00000115  00000-0  10000-3 0  9993
2 43647  55.1934 359.8060 0005129 359.0222 287.0687  1.86232633 19950
BEIDOU-3 M16 (C35)      
1 43648U 18078B   21264.59434593 -.00000116  00000-0  00000+0 0  9994
2 43648  55.1889 359.8239 0003218  18.5975 315.1425  1.86232363 19961
BEIDOU-3 G1 (C59)       
1 43683U 18085A   21264.83887362 -.00000294  00000-0  00000-0 0  9992
2 43683   0.9284 214.2210 0004421  22.5588 206.1792  1.00273629 10718
BEIDOU-3 M17 (C36)      
1 43706U 18093A   21264.24957122 -.00000017  00000-0  00000-0 0  9997
2 43706  54.4492 241.1749 0011448 272.7840  87.0478  1.86231961 19322
BEIDOU-3 M18 (C37)      
1 43707U 18093B   21264.39868304 -.00000016  00000-0  00000-0 0  9996
2 43707  54.4502 241.1610 0010059 291.4126 259.3400  1.86232147 19319
BEIDOU-3 IGSO-1 (C38)   
1 44204U 19023A   21264.83416384 -.00000203  00000-0  00000-0 0  9997
2 44204  56.1636  55.8720 0022562 184.8172 178.1521  1.00292101  9020
BEIDOU-2 G8             
1 44231U 19027A   21264.91152633 -.00000262  00000-0  00000-0 0  9999
2 44231   0.2991  34.4438 0007011 161.7520 277.5064  1.00272281  8736
BEIDOU-3 IGSO-2 (C39)   
1 44337U 19035A   21264.76161249 -.00000154  00000-0  00000-0 0  9991
2 44337  55.0984 174.1293 0020148 182.4511  37.5892  1.00283196  8358
BEIDOU-3 M23 (C45)      
1 44542U 19061A   21264.49455628 -.00000015  00000-0  10000-3 0  9995
2 44542  54.6740 241.2546 0009257 318.8270 248.9234  1.86231445 13575
BEIDOU-3 M24 (C46)      
1 44543U 19061B   21264.66615543 -.00000014  00000-0  10000-3 0  9998
2 44543  54.6722 241.2191 0006962 305.0736 288.7038  1.86231735 13573
BEIDOU-3 IGSO-3         
1 44709U 19073A   21264.55655545 -.00000158  00000-0  00000-0 0  9994
2 44709  57.6932 299.1717 0020513 184.4028 196.6257  1.00288236  7117
BEIDOU-3 M21            
1 44793U 19078A   21264.45067637 -.00000116  00000-0  10000-3 0  9998
2 44793  55.0423 359.8767 0005053   7.7477 275.6816  1.86232156 12437
BEIDOU-3 M22            
1 44794U 19078B   21264.43504215 -.00000116  00000-0  00000+0 0  9990
2 44794  55.0176 359.8734 0003225   2.7678 181.3468  1.86232799 12433
BEIDOU-3 M19            
1 44864U 19090A   21264.67961331  .00000024  00000-0  00000-0 0  9992
2 44864  55.2655 120.6171 0014691 267.1473 275.5422  1.86232041 12024
BEIDOU-3 M20            
1 44865U 19090B   21264.78511519  .00000023  00000-0  00000-0 0  9993
2 44865  55.2676 120.6440 0013320 283.4483  59.8804  1.86231984 11994
BEIDOU-3 G2             
1 45344U 20017A   21264.97048578 -.00000157  00000-0  00000-0 0  9997
2 45344   2.3138 339.6812 0003747 161.5095 289.2637  1.00271041  5939
BEIDOU-3 G3             
1 45807U 20040A   21264.97650383 -.00000371  00000-0  00000-0 0  9998
2 45807   2.0635 299.0883 0009729 336.2790 187.7199  1.00277062  4740
